{
  "type": "FeatureCollection",
  "features": [
    {
      "type": "Feature",
      "properties": {
        "norad_id": 30396,
        "name": "FENGYUN 1C DEB",
        "group": "fengyun-1c-debris",
        "lat": 19.068053560112332,
        "lon": -3.766713511833013,
        "alt_km": 931.7790823782307,
        "timestamp": "2025-12-21T07:34:34.793089+00:00",
        "meta_object_name": "FENGYUN 1C DEB",
        "meta_object_id": "1999-025ADK",
        "meta_epoch": "2025-12-20T22:55:05.895840",
        "meta_mean_motion": 13.87171152,
        "meta_eccentricity": 0.01352077,
        "meta_inclination": 98.2238,
        "meta_ra_of_asc_node": 358.7809,
        "meta_arg_of_pericenter": 107.1507,
        "meta_mean_anomaly": 273.2485,
        "meta_ephemeris_type": 0,
        "meta_classification_type": "U",
        "meta_norad_cat_id": 30396,
        "meta_element_set_no": 999,
        "meta_rev_at_epoch": 95693,
        "meta_bstar": 9.0251707e-05,
        "meta_mean_motion_dot": 7.9e-07,
        "meta_mean_motion_ddot": 0,
        "tle_line1": "1 30396U 99025ADK 25354.95492935  .00000079  00000+0  90252-4 0  9998",
        "tle_line2": "2 30396  98.2238 358.7809 0135207 107.1507 273.2485 13.87171152956933"
      },
      "geometry": {
        "type": "Point",
        "coordinates": [
          -3.766713511833013,
          19.068053560112332
        ]
      }
    },
    {
      "type": "Feature",
      "properties": {
        "norad_id": 30397,
        "name": "FENGYUN 1C DEB",
        "group": "fengyun-1c-debris",
        "lat": -76.16833028407986,
        "lon": -74.09773049451724,
        "alt_km": 1012.9211892452095,
        "timestamp": "2025-12-21T07:34:34.793099+00:00",
        "meta_object_name": "FENGYUN 1C DEB",
        "meta_object_id": "1999-025ADL",
        "meta_epoch": "2025-12-20T22:20:49.549920",
        "meta_mean_motion": 13.98611458,
        "meta_eccentricity": 0.01495721,
        "meta_inclination": 98.4059,
        "meta_ra_of_asc_node": 142.4598,
        "meta_arg_of_pericenter": 69.5894,
        "meta_mean_anomaly": 54.5417,
        "meta_ephemeris_type": 0,
        "meta_classification_type": "U",
        "meta_norad_cat_id": 30397,
        "meta_element_set_no": 999,
        "meta_rev_at_epoch": 95879,
        "meta_bstar": 0.00085377358,
        "meta_mean_motion_dot": 1.31e-05,
        "meta_mean_motion_ddot": 0,
        "tle_line1": "1 30397U 99025ADL 25354.93112905  .00001310  00000+0  85377-3 0  9993",
        "tle_line2": "2 30397  98.4059 142.4598 0149572  69.5894  54.5417 13.98611458958791"
      },
      "geometry": {
        "type": "Point",
        "coordinates": [
          -74.09773049451724,
          -76.16833028407986
        ]
      }
    },
    {
      "type": "Feature",
      "properties": {
        "norad_id": 30398,
        "name": "FENGYUN 1C DEB",
        "group": "fengyun-1c-debris",
        "lat": 62.50703963997422,
        "lon": -127.16838854629908,
        "alt_km": 1072.1531138913215,
        "timestamp": "2025-12-21T07:34:34.793108+00:00",
        "meta_object_name": "FENGYUN 1C DEB",
        "meta_object_id": "1999-025ADM",
        "meta_epoch": "2025-12-19T17:03:56.542176",
        "meta_mean_motion": 13.78704658,
        "meta_eccentricity": 0.01725451,
        "meta_inclination": 99.7144,
        "meta_ra_of_asc_node": 250.4057,
        "meta_arg_of_pericenter": 277.8534,
        "meta_mean_anomaly": 105.3265,
        "meta_ephemeris_type": 0,
        "meta_classification_type": "U",
        "meta_norad_cat_id": 30398,
        "meta_element_set_no": 999,
        "meta_rev_at_epoch": 94853,
        "meta_bstar": 0.00034305655,
        "meta_mean_motion_dot": 3.41e-06,
        "meta_mean_motion_ddot": 0,
        "tle_line1": "1 30398U 99025ADM 25353.71107109  .00000341  00000+0  34306-3 0  9998",
        "tle_line2": "2 30398  99.7144 250.4057 0172545 277.8534 105.3265 13.78704658948532"
      },
      "geometry": {
        "type": "Point",
        "coordinates": [
          -127.16838854629908,
          62.50703963997422
        ]
      }
    },
    {
      "type": "Feature",
      "properties": {
        "norad_id": 30400,
        "name": "FENGYUN 1C DEB",
        "group": "fengyun-1c-debris",
        "lat": 44.824018872670834,
        "lon": 112.22234708864991,
        "alt_km": 1018.7648582879201,
        "timestamp": "2025-12-21T07:34:34.793117+00:00",
        "meta_object_name": "FENGYUN 1C DEB",
        "meta_object_id": "1999-025ADP",
        "meta_epoch": "2025-12-20T07:41:43.314144",
        "meta_mean_motion": 14.10096404,
        "meta_eccentricity": 0.02263136,
        "meta_inclination": 99.1571,
        "meta_ra_of_asc_node": 281.984,
        "meta_arg_of_pericenter": 314.8538,
        "meta_mean_anomaly": 171.2043,
        "meta_ephemeris_type": 0,
        "meta_classification_type": "U",
        "meta_norad_cat_id": 30400,
        "meta_element_set_no": 999,
        "meta_rev_at_epoch": 95621,
        "meta_bstar": 0.0027997351,
        "meta_mean_motion_dot": 6.235e-05,
        "meta_mean_motion_ddot": 0,
        "tle_line1": "1 30400U 99025ADP 25354.32064021  .00006235  00000+0  27997-2 0  9990",
        "tle_line2": "2 30400  99.1571 281.9840 0226313 314.8538 171.2043 14.10096404956212"
      },
      "geometry": {
        "type": "Point",
        "coordinates": [
          112.22234708864991,
          44.824018872670834
        ]
      }
    },
    {
      "type": "Feature",
      "properties": {
        "norad_id": 30401,
        "name": "FENGYUN 1C DEB",
        "group": "fengyun-1c-debris",
        "lat": -10.963263209067764,
        "lon": -125.83591105585444,
        "alt_km": 833.2480850077927,
        "timestamp": "2025-12-21T07:34:34.793126+00:00",
        "meta_object_name": "FENGYUN 1C DEB",
        "meta_object_id": "1999-025ADQ",
        "meta_epoch": "2025-12-20T14:48:44.066880",
        "meta_mean_motion": 14.2799694,
        "meta_eccentricity": 0.0108077,
        "meta_inclination": 98.947,
        "meta_ra_of_asc_node": 231.6999,
        "meta_arg_of_pericenter": 104.8279,
        "meta_mean_anomaly": 256.4903,
        "meta_ephemeris_type": 0,
        "meta_classification_type": "U",
        "meta_norad_cat_id": 30401,
        "meta_element_set_no": 999,
        "meta_rev_at_epoch": 98416,
        "meta_bstar": 0.00010378,
        "meta_mean_motion_dot": 2.28e-06,
        "meta_mean_motion_ddot": 0,
        "tle_line1": "1 30401U 99025ADQ 25354.61717670  .00000228  00000+0  10378-3 0  9990",
        "tle_line2": "2 30401  98.9470 231.6999 0108077 104.8279 256.4903 14.27996940984168"
      },
      "geometry": {
        "type": "Point",
        "coordinates": [
          -125.83591105585444,
          -10.963263209067764
        ]
      }
    },
    {
      "type": "Feature",
      "properties": {
        "norad_id": 30403,
        "name": "FENGYUN 1C DEB",
        "group": "fengyun-1c-debris",
        "lat": -37.09765374487462,
        "lon": 80.89642867205269,
        "alt_km": 782.4167061597791,
        "timestamp": "2025-12-21T07:34:34.793136+00:00",
        "meta_object_name": "FENGYUN 1C DEB",
        "meta_object_id": "1999-025ADS",
        "meta_epoch": "2025-12-20T21:36:55.941408",
        "meta_mean_motion": 14.21590944,
        "meta_eccentricity": 0.00744262,
        "meta_inclination": 99.0597,
        "meta_ra_of_asc_node": 73.5404,
        "meta_arg_of_pericenter": 358.9415,
        "meta_mean_anomaly": 1.1593,
        "meta_ephemeris_type": 0,
        "meta_classification_type": "U",
        "meta_norad_cat_id": 30403,
        "meta_element_set_no": 999,
        "meta_rev_at_epoch": 96922,
        "meta_bstar": 0.0012794048,
        "meta_mean_motion_dot": 2.839e-05,
        "meta_mean_motion_ddot": 0,
        "tle_line1": "1 30403U 99025ADS 25354.90064747  .00002839  00000+0  12794-2 0  9997",
        "tle_line2": "2 30403  99.0597  73.5404 0074426 358.9415   1.1593 14.21590944969228"
      },
      "geometry": {
        "type": "Point",
        "coordinates": [
          80.89642867205269,
          -37.09765374487462
        ]
      }
    },
    {
      "type": "Feature",
      "properties": {
        "norad_id": 30404,
        "name": "FENGYUN 1C DEB",
        "group": "fengyun-1c-debris",
        "lat": -42.51983144267156,
        "lon": -102.37785209978625,
        "alt_km": 1210.6021643419317,
        "timestamp": "2025-12-21T07:34:34.793145+00:00",
        "meta_object_name": "FENGYUN 1C DEB",
        "meta_object_id": "1999-025ADT",
        "meta_epoch": "2025-12-19T23:54:32.428224",
        "meta_mean_motion": 13.34354549,
        "meta_eccentricity": 0.03762973,
        "meta_inclination": 99.8326,
        "meta_ra_of_asc_node": 85.5019,
        "meta_arg_of_pericenter": 119.2039,
        "meta_mean_anomaly": 244.7273,
        "meta_ephemeris_type": 0,
        "meta_classification_type": "U",
        "meta_norad_cat_id": 30404,
        "meta_element_set_no": 999,
        "meta_rev_at_epoch": 58133,
        "meta_bstar": 0.00058436057,
        "meta_mean_motion_dot": 3.95e-06,
        "meta_mean_motion_ddot": 0,
        "tle_line1": "1 30404U 99025ADT 25353.99620866  .00000395  00000+0  58436-3 0  9995",
        "tle_line2": "2 30404  99.8326  85.5019 0376297 119.2039 244.7273 13.34354549581337"
      },
      "geometry": {
        "type": "Point",
        "coordinates": [
          -102.37785209978625,
          -42.51983144267156
        ]
      }
    }
  ]
}